start=new Date('2021-11-02T00:00:00.000Z').valueOf();
sats=[{"CLASSIFICATION_TYPE":"U","SITE":"AFETR","INCLINATION":"53.0556","NORAD_CAT_ID":"47876","MEAN_MOTION":"15.06406409","OBJECT_TYPE":"PAYLOAD","OBJECT_NAME":"STARLINK-2332","FILE":"3196819","RA_OF_ASC_NODE":"204.7604","REV_AT_EPOCH":"3670","PERIOD":"95.592","TLE_LINE2":"2 47876  53.0556 204.7604 0001676  77.7901 282.3276 15.06406409 36703","EPOCH":"2021-11-01T17:22:06.361536","LAUNCH_DATE":"2021-03-14","PERIAPSIS":"546.033","REF_FRAME":"TEME","MEAN_ANOMALY":"282.3276","OBJECT_ID":"2021-021S","CENTER_NAME":"EARTH","TLE_LINE1":"1 47876U 21021S   21305.72368474  .00000140  00000-0  28278-4 0  9996","SEMIMAJOR_AXIS":"6925.329","TIME_SYSTEM":"UTC","ARG_OF_PERICENTER":"77.7901","MEAN_ELEMENT_THEORY":"SGP4","DECAY_DATE":null,"COUNTRY_CODE":"US","APOAPSIS":"548.355","GP_ID":"188695362","EPHEMERIS_TYPE":"0","ECCENTRICITY":"0.00016760","MEAN_MOTION_DOT":"0.00000140","RCS_SIZE":"LARGE","BSTAR":"0.00002827800000","MEAN_MOTION_DDOT":"0.0000000000000","ELEMENT_SET_NO":"999"},{"ELEMENT_SET_NO":"999","MEAN_MOTION_DDOT":"0.0000000000000","BSTAR":"0.00003355800000","RCS_SIZE":"LARGE","MEAN_MOTION_DOT":"0.00000218","ECCENTRICITY":"0.00015860","EPHEMERIS_TYPE":"0","GP_ID":"188695112","APOAPSIS":"548.314","COUNTRY_CODE":"US","MEAN_ELEMENT_THEORY":"SGP4","DECAY_DATE":null,"ARG_OF_PERICENTER":"80.6979","TLE_LINE1":"1 47877U 21021T   21305.73843319  .00000218  00000-0  33558-4 0  9997","SEMIMAJOR_AXIS":"6925.350","TIME_SYSTEM":"UTC","CENTER_NAME":"EARTH","OBJECT_ID":"2021-021T","MEAN_ANOMALY":"279.4189","REF_FRAME":"TEME","PERIAPSIS":"546.117","LAUNCH_DATE":"2021-03-14","EPOCH":"2021-11-01T17:43:20.627616","TLE_LINE2":"2 47877  53.0531 204.6814 0001586  80.6979 279.4189 15.06399452 36694","PERIOD":"95.592","REV_AT_EPOCH":"3669","RA_OF_ASC_NODE":"204.6814","FILE":"3196819","OBJECT_NAME":"STARLINK-2333","OBJECT_TYPE":"PAYLOAD","MEAN_MOTION":"15.06399452","NORAD_CAT_ID":"47877","INCLINATION":"53.0531","SITE":"AFETR","CLASSIFICATION_TYPE":"U"},{"NORAD_CAT_ID":"47878","MEAN_MOTION":"15.06398517","SITE":"AFETR","CLASSIFICATION_TYPE":"U","INCLINATION":"53.0565","RA_OF_ASC_NODE":"204.9453","OBJECT_NAME":"STARLINK-2335","OBJECT_TYPE":"PAYLOAD","FILE":"3196819","EPOCH":"2021-11-01T16:23:43.907712","REV_AT_EPOCH":"3648","PERIOD":"95.592","TLE_LINE2":"2 47878  53.0565 204.9453 0001722  67.8299 292.2873 15.06398517 36489","MEAN_ANOMALY":"292.2873","OBJECT_ID":"2021-021U","REF_FRAME":"TEME","PERIAPSIS":"546.026","CENTER_NAME":"EARTH","TLE_LINE1":"1 47878U 21021U   21305.68314708  .00000040  00000-0  21570-4 0  9991","SEMIMAJOR_AXIS":"6925.353","TIME_SYSTEM":"UTC","LAUNCH_DATE":"2021-03-14","COUNTRY_CODE":"US","DECAY_DATE":null,"MEAN_ELEMENT_THEORY":"SGP4","ARG_OF_PERICENTER":"67.8299","EPHEMERIS_TYPE":"0","APOAPSIS":"548.411","GP_ID":"188694361","BSTAR":"0.00002157000000","RCS_SIZE":"LARGE","ECCENTRICITY":"0.00017220","MEAN_MOTION_DOT":"0.00000040","ELEMENT_SET_NO":"999","MEAN_MOTION_DDOT":"0.0000000000000"},{"ELEMENT_SET_NO":"999","MEAN_MOTION_DDOT":"0.0000000000000","RCS_SIZE":"LARGE","BSTAR":"0.00023915000000","ECCENTRICITY":"0.00015510","MEAN_MOTION_DOT":"0.00003284","EPHEMERIS_TYPE":"0","APOAPSIS":"548.250","GP_ID":"188694611","COUNTRY_CODE":"US","ARG_OF_PERICENTER":"72.3852","MEAN_ELEMENT_THEORY":"SGP4","DECAY_DATE":null,"REF_FRAME":"TEME","PERIAPSIS":"546.102","OBJECT_ID":"2021-021V","MEAN_ANOMALY":"287.7307","TLE_LINE1":"1 47879U 21021V   21305.74626013  .00003284  00000-0  23915-3 0  9991","TIME_SYSTEM":"UTC","SEMIMAJOR_AXIS":"6925.311","CENTER_NAME":"EARTH","LAUNCH_DATE":"2021-03-14","EPOCH":"2021-11-01T17:54:36.875232","PERIOD":"95.591","REV_AT_EPOCH":"3666","TLE_LINE2":"2 47879  53.0564 219.6718 0001551  72.3852 287.7307 15.06412327 36669","RA_OF_ASC_NODE":"219.6718","OBJECT_TYPE":"PAYLOAD","OBJECT_NAME":"STARLINK-2336","FILE":"3196819","NORAD_CAT_ID":"47879","MEAN_MOTION":"15.06412327","CLASSIFICATION_TYPE":"U","SITE":"AFETR","INCLINATION":"53.0564"},{"EPOCH":"2021-11-01T20:30:30.155616","TLE_LINE2":"2 47880  53.0534 214.1601 0001676  74.5433 285.5741 15.06398343 36575","PERIOD":"95.592","REV_AT_EPOCH":"3657","TLE_LINE1":"1 47880U 21021W   21305.85451569 -.00001180  00000-0 -60330-4 0  9995","TIME_SYSTEM":"UTC","SEMIMAJOR_AXIS":"6925.354","CENTER_NAME":"EARTH","PERIAPSIS":"546.058","REF_FRAME":"TEME","OBJECT_ID":"2021-021W","MEAN_ANOMALY":"285.5741","LAUNCH_DATE":"2021-03-14","MEAN_MOTION":"15.06398343","NORAD_CAT_ID":"47880","INCLINATION":"53.0534","CLASSIFICATION_TYPE":"U","SITE":"AFETR","RA_OF_ASC_NODE":"214.1601","FILE":"3196819","OBJECT_TYPE":"PAYLOAD","OBJECT_NAME":"STARLINK-2337","RCS_SIZE":"LARGE","BSTAR":"-0.00006033000000","MEAN_MOTION_DOT":"-0.00001180","ECCENTRICITY":"0.00016760","ELEMENT_SET_NO":"999","MEAN_MOTION_DDOT":"0.0000000000000","COUNTRY_CODE":"US","ARG_OF_PERICENTER":"74.5433","DECAY_DATE":null,"MEAN_ELEMENT_THEORY":"SGP4","EPHEMERIS_TYPE":"0","GP_ID":"188694862","APOAPSIS":"548.379"},{"NORAD_CAT_ID":"47881","MEAN_MOTION":"15.06405113","SITE":"AFETR","CLASSIFICATION_TYPE":"U","INCLINATION":"53.0711","RA_OF_ASC_NODE":"215.7515","OBJECT_NAME":"STARLINK-2339","OBJECT_TYPE":"PAYLOAD","FILE":"3196301","EPOCH":"2021-11-01T11:30:28.574496","REV_AT_EPOCH":"3648","PERIOD":"95.592","TLE_LINE2":"2 47881  53.0711 215.7515 0002459  62.9618 297.1621 15.06405113 36480","MEAN_ANOMALY":"297.1621","OBJECT_ID":"2021-021X","PERIAPSIS":"545.495","REF_FRAME":"TEME","CENTER_NAME":"EARTH","TLE_LINE1":"1 47881U 21021X   21305.47949739 -.00000638  00000-0 -23896-4 0  9998","SEMIMAJOR_AXIS":"6925.333","TIME_SYSTEM":"UTC","LAUNCH_DATE":"2021-03-14","COUNTRY_CODE":"US","MEAN_ELEMENT_THEORY":"SGP4","DECAY_DATE":null,"ARG_OF_PERICENTER":"62.9618","EPHEMERIS_TYPE":"0","APOAPSIS":"548.901","GP_ID":"188660827","BSTAR":"-0.00002389600000","RCS_SIZE":"LARGE","ECCENTRICITY":"0.00024590","MEAN_MOTION_DOT":"-0.00000638","ELEMENT_SET_NO":"999","MEAN_MOTION_DDOT":"0.0000000000000"},{"ELEMENT_SET_NO":"999","MEAN_MOTION_DDOT":"0.0000000000000","RCS_SIZE":"LARGE","BSTAR":"0.00007177800000","MEAN_MOTION_DOT":"0.00000788","ECCENTRICITY":"0.00014510","EPHEMERIS_TYPE":"0","GP_ID":"188693861","APOAPSIS":"548.219","COUNTRY_CODE":"US","ARG_OF_PERICENTER":"79.1897","MEAN_ELEMENT_THEORY":"SGP4","DECAY_DATE":null,"SEMIMAJOR_AXIS":"6925.349","TLE_LINE1":"1 47882U 21021Y   21305.85269943  .00000788  00000-0  71778-4 0  9999","CENTER_NAME":"EARTH","TIME_SYSTEM":"UTC","REF_FRAME":"TEME","PERIAPSIS":"546.209","MEAN_ANOMALY":"280.9256","OBJECT_ID":"2021-021Y","LAUNCH_DATE":"2021-03-14","EPOCH":"2021-11-01T20:27:53.230752","TLE_LINE2":"2 47882  53.0547 204.1720 0001451  79.1897 280.9256 15.06399782 36880","PERIOD":"95.592","REV_AT_EPOCH":"3688","RA_OF_ASC_NODE":"204.1720","FILE":"3196819","OBJECT_TYPE":"PAYLOAD","OBJECT_NAME":"STARLINK-2340","MEAN_MOTION":"15.06399782","NORAD_CAT_ID":"47882","INCLINATION":"53.0547","CLASSIFICATION_TYPE":"U","SITE":"AFETR"},{"COUNTRY_CODE":"US","DECAY_DATE":null,"MEAN_ELEMENT_THEORY":"SGP4","ARG_OF_PERICENTER":"71.7548","EPHEMERIS_TYPE":"0","GP_ID":"188694111","APOAPSIS":"548.338","BSTAR":"0.00002566800000","RCS_SIZE":"LARGE","MEAN_MOTION_DOT":"0.00000101","ECCENTRICITY":"0.00016130","ELEMENT_SET_NO":"999","MEAN_MOTION_DDOT":"0.0000000000000","MEAN_MOTION":"15.06397463","NORAD_CAT_ID":"47883","INCLINATION":"53.0574","SITE":"AFETR","CLASSIFICATION_TYPE":"U","RA_OF_ASC_NODE":"209.0155","FILE":"3196819","OBJECT_NAME":"STARLINK-2342","OBJECT_TYPE":"PAYLOAD","EPOCH":"2021-11-01T21:22:57.161568","TLE_LINE2":"2 47883  53.0574 209.0155 0001613  71.7548 288.3616 15.06397463 36828","PERIOD":"95.592","REV_AT_EPOCH":"3682","SEMIMAJOR_AXIS":"6925.356","TLE_LINE1":"1 47883U 21021Z   21305.89093937  .00000101  00000-0  25668-4 0  9998","CENTER_NAME":"EARTH","TIME_SYSTEM":"UTC","OBJECT_ID":"2021-021Z","MEAN_ANOMALY":"288.3616","REF_FRAME":"TEME","PERIAPSIS":"546.104","LAUNCH_DATE":"2021-03-14"},{"ELEMENT_SET_NO":"999","MEAN_MOTION_DDOT":"0.0000000000000","BSTAR":"0.00013987000000","RCS_SIZE":"LARGE","ECCENTRICITY":"0.00018420","MEAN_MOTION_DOT":"0.00001803","EPHEMERIS_TYPE":"0","APOAPSIS":"548.476","GP_ID":"188660076","COUNTRY_CODE":"US","DECAY_DATE":null,"MEAN_ELEMENT_THEORY":"SGP4","ARG_OF_PERICENTER":"71.8362","MEAN_ANOMALY":"288.2828","OBJECT_ID":"2021-021AA","PERIAPSIS":"545.924","REF_FRAME":"TEME","CENTER_NAME":"EARTH","TLE_LINE1":"1 47884U 21021AA  21305.47580703  .00001803  00000-0  13987-3 0  9995","SEMIMAJOR_AXIS":"6925.335","TIME_SYSTEM":"UTC","LAUNCH_DATE":"2021-03-14","EPOCH":"2021-11-01T11:25:09.727392","REV_AT_EPOCH":"3651","PERIOD":"95.592","TLE_LINE2":"2 47884  53.0537 215.8693 0001842  71.8362 288.2828 15.06404466 36511","RA_OF_ASC_NODE":"215.8693","OBJECT_NAME":"STARLINK-2343","OBJECT_TYPE":"PAYLOAD","FILE":"3196301","NORAD_CAT_ID":"47884","MEAN_MOTION":"15.06404466","SITE":"AFETR","CLASSIFICATION_TYPE":"U","INCLINATION":"53.0537"},{"PERIOD":"95.593","REV_AT_EPOCH":"3660","TLE_LINE2":"2 47885  53.0543 220.8936 0001736  67.6146 292.5027 15.06394058 36604","EPOCH":"2021-11-01T11:16:33.197088","LAUNCH_DATE":"2021-03-14","MEAN_ANOMALY":"292.5027","OBJECT_ID":"2021-021AB","PERIAPSIS":"546.030","REF_FRAME":"TEME","CENTER_NAME":"EARTH","TLE_LINE1":"1 47885U 21021AB  21305.46982867 -.00000094  00000-0  12627-4 0  9995","SEMIMAJOR_AXIS":"6925.367","TIME_SYSTEM":"UTC","SITE":"AFETR","CLASSIFICATION_TYPE":"U","INCLINATION":"53.0543","NORAD_CAT_ID":"47885","MEAN_MOTION":"15.06394058","OBJECT_NAME":"STARLINK-2344","OBJECT_TYPE":"PAYLOAD","FILE":"3196301","RA_OF_ASC_NODE":"220.8936","ECCENTRICITY":"0.00017360","MEAN_MOTION_DOT":"-0.00000094","BSTAR":"0.00001262700000","RCS_SIZE":"LARGE","MEAN_MOTION_DDOT":"0.0000000000000","ELEMENT_SET_NO":"999","DECAY_DATE":null,"MEAN_ELEMENT_THEORY":"SGP4","ARG_OF_PERICENTER":"67.6146","COUNTRY_CODE":"US","APOAPSIS":"548.434","GP_ID":"188660328","EPHEMERIS_TYPE":"0"}];
